[{"OBJECT_NAME":"UM5-EOSAT","OBJECT_ID":"2024-149CR","EPOCH":"2026-03-09T17:21:09.122400","MEAN_MOTION":15.00894746,"ECCENTRICITY":0.00087192,"INCLINATION":97.6855,"RA_OF_ASC_NODE":148.6787,"ARG_OF_PERICENTER":107.8964,"MEAN_ANOMALY":252.3212,"EPHEMERIS_TYPE":0,"CLASSIFICATION_TYPE":"U","NORAD_CAT_ID":60555,"ELEMENT_SET_NO":999,"REV_AT_EPOCH":8529,"BSTAR":0.00036077282,"MEAN_MOTION_DOT":4.537e-5,"MEAN_MOTION_DDOT":0},{"OBJECT_NAME":"COSMOS 252 DEB","OBJECT_ID":"1968-097DV","EPOCH":"2026-03-09T06:51:51.124896","MEAN_MOTION":13.73038958,"ECCENTRICITY":0.05679066,"INCLINATION":62.4087,"RA_OF_ASC_NODE":319.2034,"ARG_OF_PERICENTER":227.0183,"MEAN_ANOMALY":128.1904,"EPHEMERIS_TYPE":0,"CLASSIFICATION_TYPE":"U","NORAD_CAT_ID":9973,"ELEMENT_SET_NO":999,"REV_AT_EPOCH":1707,"BSTAR":0.00062015301,"MEAN_MOTION_DOT":1.742e-5,"MEAN_MOTION_DDOT":0}]
